ONEWEB-0521             
1 54139U 22138AC  26123.27946853  .00000002  00000+0 -27733-4 0  9994
2 54139  87.9155 313.9072 0001931  96.1158 264.0195 13.19724607170845
ONEWEB-0522             
1 54140U 22138AD  26123.25894399  .00000063  00000+0  12486-3 0  9995
2 54140  87.9157 313.9131 0001916  85.5925 274.5427 13.19724908170884
ONEWEB-0523             
1 54141U 22138AE  26123.18246237 -.00000019  00000+0 -77518-4 0  9991
2 54141  87.9150 283.4193 0001624 123.0563 237.0727 13.20770666173366
ONEWEB-0524             
1 54142U 22138AF  26123.17140240  .00000064  00000+0  12665-3 0  9997
2 54142  87.9146 283.4184 0000912  97.1724 262.9513 13.20770214173360
ONEWEB-0525             
1 54143U 22138AG  26122.97463366 -.00000011  00000+0 -59307-4 0  9991
2 54143  87.9153 313.9790 0001916  81.4668 278.6681 13.19723862170866
ONEWEB-0526             
1 54144U 22138AH  26123.23525092  .00000251  00000+0  59430-3 0  9997
2 54144  87.9154 313.9269 0001762  86.6616 273.4718 13.19726869170873
ONEWEB-0529             
1 54145U 22138AJ  26123.23840850  .00000045  00000+0  80588-4 0  9990
2 54145  87.9148 313.9387 0001881  81.5272 278.6074 13.19725244170892
ONEWEB-0531             
1 54146U 22138AK  26123.15719598  .00000133  00000+0  29627-3 0  9990
2 54146  87.9147 283.4195 0001274 123.5303 236.5952 13.20770444173365
ONEWEB-0535             
1 54147U 22138AL  26123.27158037 -.00000001  00000+0 -34596-4 0  9997
2 54147  87.9154 313.9131 0001734 100.2794 259.8535 13.19724486170916
ONEWEB-0536             
1 54148U 22138AM  26123.14456521  .00000053  00000+0  98740-4 0  9999
2 54148  87.9137 283.4497 0001125 125.8517 234.2721 13.20770285173359
ONEWEB-0527             
1 54642U 22166A   26123.05568899 -.00000016  00000+0 -70165-4 0  9993
2 54642  87.9225 252.9792 0001819  99.4864 260.6476 13.21826070165576
ONEWEB-0528             
1 54643U 22166B   26123.06156852  .00000043  00000+0  72150-4 0  9991
2 54643  87.9226 252.9819 0001885  92.3522 267.7828 13.21825569165586
ONEWEB-0539             
1 54644U 22166C   26122.79747942 -.00000026  00000+0 -93439-4 0  9993
2 54644  87.9233 253.0037 0002163 101.4264 258.7113 13.21827125165547
ONEWEB-0540             
1 54645U 22166D   26123.10712925 -.00000052  00000+0 -15662-3 0  9993
2 54645  87.9228 252.9753 0001990 101.9243 258.2114 13.21826679165576
ONEWEB-0542             
1 54646U 22166E   26123.11035468  .00000026  00000+0  32060-4 0  9996
2 54646  87.9237 252.9393 0002195 103.2150 256.9229 13.21827663165584
ONEWEB-0545             
1 54647U 22166F   26123.30212801  .00000112  00000+0  23855-3 0  9993
2 54647  87.9229 252.9163 0002362 107.1112 253.0281 13.21824896165578
