[{"OBJECT_NAME":"ONEWEB-0521","OBJECT_ID":"2022-138AC","EPOCH":"2026-05-03T06:42:26.080992","MEAN_MOTION":13.19724607,"ECCENTRICITY":0.0001931,"INCLINATION":87.9155,"RA_OF_ASC_NODE":313.9072,"ARG_OF_PERICENTER":96.1158,"MEAN_ANOMALY":264.0195,"EPHEMERIS_TYPE":0,"CLASSIFICATION_TYPE":"U","NORAD_CAT_ID":54139,"ELEMENT_SET_NO":999,"REV_AT_EPOCH":17084,"BSTAR":-2.7733000000000004e-05,"MEAN_MOTION_DOT":2e-08,"MEAN_MOTION_DDOT":0.0},{"OBJECT_NAME":"ONEWEB-0522","OBJECT_ID":"2022-138AD","EPOCH":"2026-05-03T06:12:52.760736","MEAN_MOTION":13.19724908,"ECCENTRICITY":0.0001916,"INCLINATION":87.9157,"RA_OF_ASC_NODE":313.9131,"ARG_OF_PERICENTER":85.5925,"MEAN_ANOMALY":274.5427,"EPHEMERIS_TYPE":0,"CLASSIFICATION_TYPE":"U","NORAD_CAT_ID":54140,"ELEMENT_SET_NO":999,"REV_AT_EPOCH":17088,"BSTAR":0.00012486,"MEAN_MOTION_DOT":6.3e-07,"MEAN_MOTION_DDOT":0.0},{"OBJECT_NAME":"ONEWEB-0523","OBJECT_ID":"2022-138AE","EPOCH":"2026-05-03T04:22:44.748768","MEAN_MOTION":13.20770666,"ECCENTRICITY":0.0001624,"INCLINATION":87.915,"RA_OF_ASC_NODE":283.4193,"ARG_OF_PERICENTER":123.0563,"MEAN_ANOMALY":237.0727,"EPHEMERIS_TYPE":0,"CLASSIFICATION_TYPE":"U","NORAD_CAT_ID":54141,"ELEMENT_SET_NO":999,"REV_AT_EPOCH":17336,"BSTAR":-7.7518e-05,"MEAN_MOTION_DOT":-1.9e-07,"MEAN_MOTION_DDOT":0.0},{"OBJECT_NAME":"ONEWEB-0524","OBJECT_ID":"2022-138AF","EPOCH":"2026-05-03T04:06:49.167360","MEAN_MOTION":13.20770214,"ECCENTRICITY":9.12e-05,"INCLINATION":87.9146,"RA_OF_ASC_NODE":283.4184,"ARG_OF_PERICENTER":97.1724,"MEAN_ANOMALY":262.9513,"EPHEMERIS_TYPE":0,"CLASSIFICATION_TYPE":"U","NORAD_CAT_ID":54142,"ELEMENT_SET_NO":999,"REV_AT_EPOCH":17336,"BSTAR":0.00012665000000000002,"MEAN_MOTION_DOT":6.4e-07,"MEAN_MOTION_DDOT":0.0},{"OBJECT_NAME":"ONEWEB-0525","OBJECT_ID":"2022-138AG","EPOCH":"2026-05-02T23:23:28.348224","MEAN_MOTION":13.19723862,"ECCENTRICITY":0.0001916,"INCLINATION":87.9153,"RA_OF_ASC_NODE":313.979,"ARG_OF_PERICENTER":81.4668,"MEAN_ANOMALY":278.6681,"EPHEMERIS_TYPE":0,"CLASSIFICATION_TYPE":"U","NORAD_CAT_ID":54143,"ELEMENT_SET_NO":999,"REV_AT_EPOCH":17086,"BSTAR":-5.9307e-05,"MEAN_MOTION_DOT":-1.1e-07,"MEAN_MOTION_DDOT":0.0},{"OBJECT_NAME":"ONEWEB-0526","OBJECT_ID":"2022-138AH","EPOCH":"2026-05-03T05:38:45.679488","MEAN_MOTION":13.19726869,"ECCENTRICITY":0.0001762,"INCLINATION":87.9154,"RA_OF_ASC_NODE":313.9269,"ARG_OF_PERICENTER":86.6616,"MEAN_ANOMALY":273.4718,"EPHEMERIS_TYPE":0,"CLASSIFICATION_TYPE":"U","NORAD_CAT_ID":54144,"ELEMENT_SET_NO":999,"REV_AT_EPOCH":17087,"BSTAR":0.0005943000000000001,"MEAN_MOTION_DOT":2.51e-06,"MEAN_MOTION_DDOT":0.0},{"OBJECT_NAME":"ONEWEB-0529","OBJECT_ID":"2022-138AJ","EPOCH":"2026-05-03T05:43:18.494400","MEAN_MOTION":13.19725244,"ECCENTRICITY":0.0001881,"INCLINATION":87.9148,"RA_OF_ASC_NODE":313.9387,"ARG_OF_PERICENTER":81.5272,"MEAN_ANOMALY":278.6074,"EPHEMERIS_TYPE":0,"CLASSIFICATION_TYPE":"U","NORAD_CAT_ID":54145,"ELEMENT_SET_NO":999,"REV_AT_EPOCH":17089,"BSTAR":8.058800000000001e-05,"MEAN_MOTION_DOT":4.5e-07,"MEAN_MOTION_DDOT":0.0},{"OBJECT_NAME":"ONEWEB-0531","OBJECT_ID":"2022-138AK","EPOCH":"2026-05-03T03:46:21.732672","MEAN_MOTION":13.20770444,"ECCENTRICITY":0.0001274,"INCLINATION":87.9147,"RA_OF_ASC_NODE":283.4195,"ARG_OF_PERICENTER":123.5303,"MEAN_ANOMALY":236.5952,"EPHEMERIS_TYPE":0,"CLASSIFICATION_TYPE":"U","NORAD_CAT_ID":54146,"ELEMENT_SET_NO":999,"REV_AT_EPOCH":17336,"BSTAR":0.00029627,"MEAN_MOTION_DOT":1.33e-06,"MEAN_MOTION_DDOT":0.0},{"OBJECT_NAME":"ONEWEB-0535","OBJECT_ID":"2022-138AL","EPOCH":"2026-05-03T06:31:04.543968","MEAN_MOTION":13.19724486,"ECCENTRICITY":0.0001734,"INCLINATION":87.9154,"RA_OF_ASC_NODE":313.9131,"ARG_OF_PERICENTER":100.2794,"MEAN_ANOMALY":259.8535,"EPHEMERIS_TYPE":0,"CLASSIFICATION_TYPE":"U","NORAD_CAT_ID":54147,"ELEMENT_SET_NO":999,"REV_AT_EPOCH":17091,"BSTAR":-3.4596e-05,"MEAN_MOTION_DOT":-1e-08,"MEAN_MOTION_DDOT":0.0},{"OBJECT_NAME":"ONEWEB-0536","OBJECT_ID":"2022-138AM","EPOCH":"2026-05-03T03:28:10.434144","MEAN_MOTION":13.20770285,"ECCENTRICITY":0.0001125,"INCLINATION":87.9137,"RA_OF_ASC_NODE":283.4497,"ARG_OF_PERICENTER":125.8517,"MEAN_ANOMALY":234.2721,"EPHEMERIS_TYPE":0,"CLASSIFICATION_TYPE":"U","NORAD_CAT_ID":54148,"ELEMENT_SET_NO":999,"REV_AT_EPOCH":17335,"BSTAR":9.874e-05,"MEAN_MOTION_DOT":5.3e-07,"MEAN_MOTION_DDOT":0.0},{"OBJECT_NAME":"ONEWEB-0527","OBJECT_ID":"2022-166A","EPOCH":"2026-05-03T01:20:11.528736","MEAN_MOTION":13.2182607,"ECCENTRICITY":0.0001819,"INCLINATION":87.9225,"RA_OF_ASC_NODE":252.9792,"ARG_OF_PERICENTER":99.4864,"MEAN_ANOMALY":260.6476,"EPHEMERIS_TYPE":0,"CLASSIFICATION_TYPE":"U","NORAD_CAT_ID":54642,"ELEMENT_SET_NO":999,"REV_AT_EPOCH":16557,"BSTAR":-7.0165e-05,"MEAN_MOTION_DOT":-1.6e-07,"MEAN_MOTION_DDOT":0.0},{"OBJECT_NAME":"ONEWEB-0528","OBJECT_ID":"2022-166B","EPOCH":"2026-05-03T01:28:39.520128","MEAN_MOTION":13.21825569,"ECCENTRICITY":0.0001885,"INCLINATION":87.9226,"RA_OF_ASC_NODE":252.9819,"ARG_OF_PERICENTER":92.3522,"MEAN_ANOMALY":267.7828,"EPHEMERIS_TYPE":0,"CLASSIFICATION_TYPE":"U","NORAD_CAT_ID":54643,"ELEMENT_SET_NO":999,"REV_AT_EPOCH":16558,"BSTAR":7.215e-05,"MEAN_MOTION_DOT":4.3e-07,"MEAN_MOTION_DDOT":0.0},{"OBJECT_NAME":"ONEWEB-0539","OBJECT_ID":"2022-166C","EPOCH":"2026-05-02T19:08:22.221888","MEAN_MOTION":13.21827125,"ECCENTRICITY":0.0002163,"INCLINATION":87.9233,"RA_OF_ASC_NODE":253.0037,"ARG_OF_PERICENTER":101.4264,"MEAN_ANOMALY":258.7113,"EPHEMERIS_TYPE":0,"CLASSIFICATION_TYPE":"U","NORAD_CAT_ID":54644,"ELEMENT_SET_NO":999,"REV_AT_EPOCH":16554,"BSTAR":-9.343900000000001e-05,"MEAN_MOTION_DOT":-2.6e-07,"MEAN_MOTION_DDOT":0.0},{"OBJECT_NAME":"ONEWEB-0540","OBJECT_ID":"2022-166D","EPOCH":"2026-05-03T02:34:15.967200","MEAN_MOTION":13.21826679,"ECCENTRICITY":0.000199,"INCLINATION":87.9228,"RA_OF_ASC_NODE":252.9753,"ARG_OF_PERICENTER":101.9243,"MEAN_ANOMALY":258.2114,"EPHEMERIS_TYPE":0,"CLASSIFICATION_TYPE":"U","NORAD_CAT_ID":54645,"ELEMENT_SET_NO":999,"REV_AT_EPOCH":16557,"BSTAR":-0.00015662,"MEAN_MOTION_DOT":-5.2e-07,"MEAN_MOTION_DDOT":0.0},{"OBJECT_NAME":"ONEWEB-0542","OBJECT_ID":"2022-166E","EPOCH":"2026-05-03T02:38:54.644352","MEAN_MOTION":13.21827663,"ECCENTRICITY":0.0002195,"INCLINATION":87.9237,"RA_OF_ASC_NODE":252.9393,"ARG_OF_PERICENTER":103.215,"MEAN_ANOMALY":256.9229,"EPHEMERIS_TYPE":0,"CLASSIFICATION_TYPE":"U","NORAD_CAT_ID":54646,"ELEMENT_SET_NO":999,"REV_AT_EPOCH":16558,"BSTAR":3.206e-05,"MEAN_MOTION_DOT":2.6e-07,"MEAN_MOTION_DDOT":0.0},{"OBJECT_NAME":"ONEWEB-0545","OBJECT_ID":"2022-166F","EPOCH":"2026-05-03T07:15:03.860064","MEAN_MOTION":13.21824896,"ECCENTRICITY":0.0002362,"INCLINATION":87.9229,"RA_OF_ASC_NODE":252.9163,"ARG_OF_PERICENTER":107.1112,"MEAN_ANOMALY":253.0281,"EPHEMERIS_TYPE":0,"CLASSIFICATION_TYPE":"U","NORAD_CAT_ID":54647,"ELEMENT_SET_NO":999,"REV_AT_EPOCH":16557,"BSTAR":0.00023855000000000003,"MEAN_MOTION_DOT":1.12e-06,"MEAN_MOTION_DDOT":0.0}]